NORAD_CAT_ID,OBJECT_NAME,OBJECT_TYPE,EPOCH,MEAN_MOTION,ECCENTRICITY,INCLINATION,RA_OF_ASC_NODE,ARG_OF_PERICENTER,MEAN_ANOMALY,BSTAR,MEAN_MOTION_DOT,MEAN_MOTION_DDOT,TLE_LINE0,TLE_LINE1,TLE_LINE2,SEMIMAJOR_AXIS,PERIOD,APOGEE,PERIGEE,DECAYED
49765.0,STARLINK-3227,PAYLOAD,2023-09-30 01:10:19,15.08852533,0.0001406,53.2163,181.865,102.1127,258.0022,0.00031062,4.661e-05,0.0,0 STARLINK-3227,1 49765U 21115AT  23273.04884049  .00004661  00000-0  31062-3 0  9997,2 49765  53.2163 181.8650 0001406 102.1127 258.0022 15.08852533101075,6917.842,95.437,540.68,538.734,0.0
49765.0,STARLINK-3227,PAYLOAD,2023-09-30 10:42:38,15.08852203,0.000124,53.2162,180.0775,83.5396,276.5737,0.00021921,3.204e-05,0.0,0 STARLINK-3227,1 49765U 21115AT  23273.44627761  .00003204  00000-0  21921-3 0  9992,2 49765  53.2162 180.0775 0001240  83.5396 276.5737 15.08852203102241,6917.843,95.437,540.566,538.85,0.0
49765.0,STARLINK-3227,PAYLOAD,2023-10-01 02:36:30,15.08842564,0.0001424,53.2151,177.1055,92.9293,267.1862,0.00012765,1.744e-05,0.0,0 STARLINK-3227,1 49765U 21115AT  23274.10868250  .00001744  00000-0  12765-3 0  9999,2 49765  53.2151 177.1055 0001424  92.9293 267.1862 15.08842564102346,6917.873,95.437,540.723,538.752,0.0
49765.0,STARLINK-3227,PAYLOAD,2023-10-01 10:33:26,15.0884088,0.0001485,53.2141,175.619,90.6366,269.4796,0.00052935,8.147e-05,0.0,0 STARLINK-3227,1 49765U 21115AT  23274.43988629  .00008147  00000-0  52935-3 0  9995,2 49765  53.2141 175.6190 0001485  90.6366 269.4796 15.08840880101283,6917.878,95.437,540.77,538.715,0.0
49765.0,STARLINK-3227,PAYLOAD,2023-10-01 21:41:07,15.08855446,0.0001478,53.2143,173.5373,90.0974,270.0187,0.00097062,0.000152,0.0,0 STARLINK-3227,1 49765U 21115AT  23274.90356457  .00015200  00000-0  97062-3 0  9993,2 49765  53.2143 173.5373 0001478  90.0974 270.0187 15.08855446101350,6917.833,95.437,540.721,538.676,0.0
49765.0,STARLINK-3227,PAYLOAD,2023-10-02 10:24:12,15.08853744,0.0001303,53.2147,171.1581,95.228,264.886,0.00055853,8.616e-05,0.0,0 STARLINK-3227,1 49765U 21115AT  23275.43348033  .00008616  00000-0  55853-3 0  9998,2 49765  53.2147 171.1581 0001303  95.2280 264.8860 15.08853744102543,6917.838,95.437,540.605,538.802,0.0
49765.0,STARLINK-3227,PAYLOAD,2023-10-03 02:18:04,15.08853312,0.0001177,53.2138,168.1843,102.0475,258.0649,0.00072299,0.00011241,0.0,0 STARLINK-3227,1 49765U 21115AT  23276.09587999  .00011241  00000-0  72299-3 0  9998,2 49765  53.2138 168.1843 0001177 102.0475 258.0649 15.08853312102644,6917.84,95.437,540.519,538.89,0.0
49765.0,STARLINK-3227,PAYLOAD,2023-10-03 10:15:00,15.08833494,0.0001286,53.2139,166.6972,90.6448,269.4691,0.00021784,3.18e-05,0.0,0 STARLINK-3227,1 49765U 21115AT  23276.42708593  .00003180  00000-0  21784-3 0  9996,2 49765  53.2139 166.6972 0001286  90.6448 269.4691 15.08833494102691,6917.9,95.438,540.655,538.876,0.0
49765.0,STARLINK-3227,PAYLOAD,2023-10-03 21:22:42,15.08837397,0.0001392,53.2139,164.6154,91.7415,268.3736,0.000617,9.545e-05,0.0,0 STARLINK-3227,1 49765U 21115AT  23276.89077001  .00009545  00000-0  61700-3 0  9993,2 49765  53.2139 164.6154 0001392  91.7415 268.3736 15.08837397101654,6917.888,95.438,540.716,538.79,0.0
49765.0,STARLINK-3227,PAYLOAD,2023-10-04 10:05:47,15.08843177,0.0001357,53.2144,162.2369,87.1412,272.9735,0.00066327,0.00010285,0.0,0 STARLINK-3227,1 49765U 21115AT  23277.42069079  .00010285  00000-0  66327-3 0  9992,2 49765  53.2144 162.2369 0001357  87.1412 272.9735 15.08843177101731,6917.871,95.437,540.674,538.797,0.0
49765.0,STARLINK-3227,PAYLOAD,2023-10-04 22:48:52,15.08858686,0.0001313,53.2143,159.8579,81.0584,279.0556,0.0007819,0.00012184,0.0,0 STARLINK-3227,1 49765U 21115AT  23277.95060559  .00012184  00000-0  78190-3 0  9995,2 49765  53.2143 159.8579 0001313  81.0584 279.0556 15.08858686101819,6917.823,95.436,540.597,538.78,0.0
49765.0,STARLINK-3227,PAYLOAD,2023-10-05 21:04:16,15.08850784,0.000101,53.2147,155.6928,94.8714,265.2393,0.00071373,0.00011093,0.0,0 STARLINK-3227,1 49765U 21115AT  23278.87796706  .00011093  00000-0  71373-3 0  9991,2 49765  53.2147 155.6928 0001010  94.8714 265.2393 15.08850784103062,6917.847,95.437,540.411,539.014,0.0
49765.0,STARLINK-3227,PAYLOAD,2023-10-05 22:39:39,15.08844715,0.0001206,53.2145,155.3945,81.6379,278.475,0.00042342,6.458e-05,0.0,0 STARLINK-3227,1 49765U 21115AT  23278.94420786  .00006458  00000-0  42342-3 0  9994,2 49765  53.2145 155.3945 0001206  81.6379 278.4750 15.08844715101961,6917.866,95.437,540.565,538.897,0.0
49765.0,STARLINK-3227,PAYLOAD,2023-10-06 01:50:25,15.08847321,0.0001252,53.2147,154.8028,92.3272,267.7863,0.00049815,7.651e-05,0.0,0 STARLINK-3227,1 49765U 21115AT  23279.07668736  .00007651  00000-0  49815-3 0  9996,2 49765  53.2147 154.8028 0001252  92.3272 267.7863 15.08847321103099,6917.858,95.437,540.589,538.857,0.0
49765.0,STARLINK-3227,PAYLOAD,2023-10-06 20:55:04,15.08833522,0.0001541,53.2153,151.2303,90.87,269.2468,0.00023343,3.428e-05,0.0,0 STARLINK-3227,1 49765U 21115AT  23279.87157511  .00003428  00000-0  23343-3 0  9994,2 49765  53.2153 151.2303 0001541  90.8700 269.2468 15.08833522103213,6917.9,95.438,540.831,538.699,0.0
49765.0,STARLINK-3227,PAYLOAD,2023-10-06 22:30:27,15.08837234,0.0001395,53.2151,150.939,86.6808,273.4344,0.00016537,2.345e-05,0.0,0 STARLINK-3227,1 49765U 21115AT  23279.93781293  .00002345  00000-0  16537-3 0  9995,2 49765  53.2151 150.9390 0001395  86.6808 273.4344 15.08837234102114,6917.889,95.438,540.719,538.789,0.0
49765.0,STARLINK-3227,PAYLOAD,2023-10-07 14:24:18,15.08837808,0.0001417,53.2151,147.965,92.1525,267.9629,0.00025653,3.797e-05,0.0,0 STARLINK-3227,1 49765U 21115AT  23280.60021764  .00003797  00000-0  25653-3 0  9992,2 49765  53.2151 147.9650 0001417  92.1525 267.9629 15.08837808102214,6917.887,95.438,540.732,538.772,0.0
49765.0,STARLINK-3227,PAYLOAD,2023-10-07 22:21:14,15.08837234,0.0001345,53.215,146.4767,89.51,270.6046,0.00014299,1.988e-05,0.0,0 STARLINK-3227,1 49765U 21115AT  23280.93141881  .00001988  00000-0  14299-3 0  9995,2 49765  53.2150 146.4767 0001345  89.5100 270.6046 15.08837234102267,6917.889,95.438,540.684,538.823,0.0
49765.0,STARLINK-3227,PAYLOAD,2023-10-07 23:56:37,15.08838313,0.0001354,53.2151,146.1791,88.3764,271.7383,0.00015843,2.234e-05,0.0,0 STARLINK-3227,1 49765U 21115AT  23280.99765850  .00002234  00000-0  15843-3 0  9990,2 49765  53.2151 146.1791 0001354  88.3764 271.7383 15.08838313103384,6917.886,95.438,540.687,538.814,0.0
49765.0,STARLINK-3227,PAYLOAD,2023-10-08 07:53:33,15.0884443,0.0001363,53.2153,144.6924,87.5805,272.5343,0.00024672,3.641e-05,0.0,0 STARLINK-3227,1 49765U 21115AT  23281.32885628  .00003641  00000-0  24672-3 0  9997,2 49765  53.2153 144.6924 0001363  87.5805 272.5343 15.08844430102329,6917.867,95.437,540.675,538.789,0.0
49765.0,STARLINK-3227,PAYLOAD,2023-10-08 20:36:37,15.08853303,0.0001376,53.2152,142.3129,83.7718,276.3431,0.00033573,5.061e-05,0.0,0 STARLINK-3227,1 49765U 21115AT  23281.85877155  .00005061  00000-0  33573-3 0  9999,2 49765  53.2152 142.3129 0001376  83.7718 276.3431 15.08853303102403,6917.84,95.437,540.657,538.753,0.0
49765.0,STARLINK-3227,PAYLOAD,2023-10-08 23:47:23,15.08862067,0.0001391,53.2155,141.7187,90.2879,269.8272,0.0003143,4.721e-05,0.0,0 STARLINK-3227,1 49765U 21115AT  23281.99124678  .00004721  00000-0  31430-3 0  9991,2 49765  53.2155 141.7187 0001391  90.2879 269.8272 15.08862067103533,6917.813,95.436,540.64,538.716,0.0
49765.0,STARLINK-3227,PAYLOAD,2023-10-09 07:44:19,15.08845637,0.0001323,53.2149,140.2318,93.6873,266.427,8.9124e-05,1.131e-05,0.0,0 STARLINK-3227,1 49765U 21115AT  23282.32245142  .00001131  00000-0  89124-4 0  9995,2 49765  53.2149 140.2318 0001323  93.6873 266.4270 15.08845637103582,6917.863,95.437,540.643,538.813,0.0
49765.0,STARLINK-3227,PAYLOAD,2023-10-09 22:02:48,15.08843242,0.0001505,53.2155,137.5555,94.0817,266.0347,5.9911e-05,6.66e-06,0.0,0 STARLINK-3227,1 49765U 21115AT  23282.91861287  .00000666  00000-0  59911-4 0  9997,2 49765  53.2155 137.5555 0001505  94.0817 266.0347 15.08843242102564,6917.87,95.437,540.777,538.694,0.0
49765.0,STARLINK-3227,PAYLOAD,2023-10-10 07:35:07,15.08836948,0.0001508,53.215,135.7703,91.4908,268.6257,6.7042e-06,-1.81e-06,0.0,0 STARLINK-3227,1 49765U 21115AT  23283.31605420 -.00000181  00000-0  67042-5 0  9995,2 49765  53.2150 135.7703 0001508  91.4908 268.6257 15.08836948103732,6917.89,95.438,540.798,538.711,0.0
49765.0,STARLINK-3227,PAYLOAD,2023-10-10 13:56:39,15.08839983,0.0001604,53.2145,134.581,90.2569,269.8607,6.5751e-05,7.59e-06,0.0,0 STARLINK-3227,1 49765U 21115AT  23283.58101496  .00000759  00000-0  65751-4 0  9992,2 49765  53.2145 134.5810 0001604  90.2569 269.8607 15.08839983102664,6917.88,95.438,540.855,538.636,0.0
49765.0,STARLINK-3227,PAYLOAD,2023-10-10 21:53:35,15.08845072,0.0001296,53.2146,133.0954,94.5917,265.5223,0.00024762,3.656e-05,0.0,0 STARLINK-3227,1 49765U 21115AT  23283.91221310  .00003656  00000-0  24762-3 0  9992,2 49765  53.2146 133.0954 0001296  94.5917 265.5223 15.08845072102718,6917.865,95.437,540.626,538.833,0.0
49765.0,STARLINK-3227,PAYLOAD,2023-10-11 13:47:26,15.08837448,0.0001345,53.214,130.1206,94.6237,265.4908,0.00016239,2.297e-05,0.0,0 STARLINK-3227,1 49765U 21115AT  23284.57461803  .00002297  00000-0  16239-3 0  9998,2 49765  53.2140 130.1206 0001345  94.6237 265.4908 15.08837448102819,6917.888,95.438,540.684,538.823,0.0
49765.0,STARLINK-3227,PAYLOAD,2023-10-11 20:08:59,15.08842673,0.0001338,53.2152,128.9314,97.5465,262.5679,0.00012641,1.725e-05,0.0,0 STARLINK-3227,1 49765U 21115AT  23284.83957646  .00001725  00000-0  12641-3 0  9990,2 49765  53.2152 128.9314 0001338  97.5465 262.5679 15.08842673103960,6917.872,95.437,540.663,538.812,0.0
49765.0,STARLINK-3227,PAYLOAD,2023-10-12 13:38:13,15.08844231,0.0001388,53.2135,125.66,91.0418,269.0733,0.00020155,2.922e-05,0.0,0 STARLINK-3227,1 49765U 21115AT  23285.56821638  .00002922  00000-0  20155-3 0  9991,2 49765  53.2135 125.6600 0001388  91.0418 269.0733 15.08844231102969,6917.867,95.437,540.693,538.772,0.0
